ONEWEB-0068             
1 45446U 20020Y   26188.75347907  .00000429  00000+0  11750-2 0  9994
2 45446  87.8886  16.9696 0001665  89.5681 270.5638 13.11415153305297
ONEWEB-0046             
1 45447U 20020Z   26187.98216753  .00000503  00000+0  13837-2 0  9994
2 45447  87.8878  17.1276 0001765  81.0985 279.0343 13.11415849305201
ONEWEB-0063             
1 45448U 20020AA  26187.93481976 -.00000478  00000+0 -13847-2 0  9995
2 45448  87.8890  17.1378 0002025  81.6909 278.4448 13.11415651305289
ONEWEB-0019             
1 45449U 20020AB  26188.50758035 -.00011014  00000+0 -31125-1 0  9999
2 45449  87.8880  17.0077 0001410 101.7980 258.3307 13.11470915305201
ONEWEB-0094             
1 45450U 20020AC  26187.94635368  .00000017  00000+0  98706-5 0  9992
2 45450  87.9148   1.9194 0001717  96.7062 263.4265 13.17648624308918
ONEWEB-0087             
1 45451U 20020AD  26188.47879297 -.00000488  00000+0 -14133-2 0  9996
2 45451  87.8898  17.0052 0001535  89.6306 270.4998 13.11416548305247
ONEWEB-0082             
1 45452U 20020AE  26188.47540372 -.00000502  00000+0 -14512-2 0  9994
2 45452  87.8889  17.0207 0001436  79.8057 280.3233 13.11416454305332
ONEWEB-0050             
1 45453U 20020AF  26187.61331715  .00001751  00000+0  17751-3 0  9993
2 45453  88.9281 230.5725 0000669 221.0981 139.0198 14.90455053343273
ONEWEB-0034             
1 45454U 20020AG  26187.97892342  .00000558  00000+0  15391-2 0  9992
2 45454  87.8888  17.1289 0001848  88.6265 271.5075 13.11416026305184
ONEWEB-0060             
1 45455U 20020AH  26187.93383578 -.00000441  00000+0 -12796-2 0  9994
2 45455  87.8881  17.1342 0000904 107.3194 252.8033 13.11415701305130
ONEWEB-0086             
1 45456U 20020AJ  26188.75178275  .00000470  00000+0  12902-2 0  9991
2 45456  87.8889  16.9683 0001587 115.0034 245.1258 13.11415628305302
ONEWEB-0088             
1 45457U 20020AK  26188.50097880  .00000334  00000+0  90757-3 0  9991
2 45457  87.8897  16.9926 0001879  75.1090 285.0246 13.11417851305203
ONEWEB-0102             
1 47258U 20100A   26188.41305463  .00000120  00000+0  29786-3 0  9997
2 47258  87.8954 346.6518 0001908 103.1703 256.9639 13.12443843267384
ONEWEB-0109             
1 47259U 20100B   26188.42152820  .00000381  00000+0  10228-2 0  9995
2 47259  87.8964 346.6354 0001975  96.7133 263.4221 13.12443619267215
ONEWEB-0110             
1 47260U 20100C   26188.37240064  .00000020  00000+0  20459-4 0  9998
2 47260  87.8963 346.6292 0001671 102.2426 257.8890 13.12442052267374
ONEWEB-0111             
1 47261U 20100D   26188.55536009 -.00000163  00000+0 -48714-3 0  9999
2 47261  87.8962 346.6117 0001755  93.6712 266.4617 13.12443940267239
ONEWEB-0114             
1 47262U 20100E   26188.43338333  .00000443  00000+0  11954-2 0  9991
2 47262  87.8967 346.6338 0002032  95.4718 264.6643 13.12441806267176
ONEWEB-0117             
1 47263U 20100F   26188.42491239  .00000440  00000+0  11872-2 0  9992
2 47263  87.8962 346.6257 0001827  95.3702 264.7635 13.12442454267188
ONEWEB-0118             
1 47264U 20100G   26188.38254985 -.00000261  00000+0 -76196-3 0  9997
2 47264  87.8963 346.6369 0002070  87.6787 272.4579 13.12441079267378
ONEWEB-0119             
1 47265U 20100H   26188.40796886 -.00000040  00000+0 -14539-3 0  9990
2 47265  87.8951 346.6468 0001856  94.6300 265.5041 13.12443079267353
ONEWEB-0120             
1 47266U 20100J   26188.43182611  .00000464  00000+0  12550-2 0  9997
2 47266  87.8953 346.6435 0002035  96.9652 263.1708 13.12441722267385
ONEWEB-0121             
1 47267U 20100K   26188.41982683  .00000349  00000+0  93586-3 0  9994
2 47267  87.8964 346.6337 0001525  92.8894 267.2409 13.12442937267297
ONEWEB-0122             
1 47268U 20100L   26188.79507779  .00000099  00000+0  23882-3 0  9999
2 47268  87.8966 346.5640 0001927  99.5681 260.5665 13.12445399267251
ONEWEB-0123             
1 47269U 20100M   26188.40965938  .00000031  00000+0  50554-4 0  9996
2 47269  87.8953 346.6455 0001896  91.7469 268.3877 13.12443182267345
ONEWEB-0124             
1 47270U 20100N   26188.39949160 -.00000280  00000+0 -81473-3 0  9996
2 47270  87.8952 346.6502 0001735  92.8874 267.2454 13.12443167267222
ONEWEB-0125             
1 47271U 20100P   26188.37746893 -.00000164  00000+0 -49143-3 0  9992
2 47271  87.8964 346.6402 0001682  85.8789 274.2532 13.12441649267287
ONEWEB-0126             
1 47272U 20100Q   26188.39794545 -.00000302  00000+0 -87485-3 0  9997
2 47272  87.8956 346.6506 0001967  94.8422 265.2931 13.12442758267357
ONEWEB-0127             
1 47273U 20100R   26188.36392376  .00000322  00000+0  86006-3 0  9999
2 47273  87.8951 346.6550 0001964  95.9876 264.1477 13.12441941267372
ONEWEB-0128             
1 47274U 20100S   26188.38593928 -.00000367  00000+0 -10559-2 0  9998
2 47274  87.8950 346.6644 0001640 102.9514 257.1798 13.12442057267394
ONEWEB-0129             
1 47275U 20100T   26188.36561408  .00000245  00000+0  64537-3 0  9994
2 47275  87.8963 346.6441 0002924  99.5098 260.6361 13.12440941267326
