OBJECT_NAME,OBJECT_ID,EPOCH,MEAN_MOTION,ECCENTRICITY,INCLINATION,RA_OF_ASC_NODE,ARG_OF_PERICENTER,MEAN_ANOMALY,EPHEMERIS_TYPE,CLASSIFICATION_TYPE,NORAD_CAT_ID,ELEMENT_SET_NO,REV_AT_EPOCH,BSTAR,MEAN_MOTION_DOT,MEAN_MOTION_DDOT
ONEWEB-0068,2020-020Y,2026-07-07T18:05:00.591648,13.11415153,.0001665,87.8886,16.9696,89.5681,270.5638,0,U,45446,999,30529,.1175E-2,.429E-5,0
ONEWEB-0046,2020-020Z,2026-07-06T23:34:19.274592,13.11415849,.00017657,87.8878,17.1276,81.0985,279.0343,0,U,45447,999,30520,.13836542E-2,.503E-5,0
ONEWEB-0063,2020-020AA,2026-07-06T22:26:08.427264,13.11415651,.00020258,87.8890,17.1378,81.6909,278.4448,0,U,45448,999,30528,-.1384727E-2,-.478E-5,0
ONEWEB-0019,2020-020AB,2026-07-07T12:10:54.942240,13.11470915,.000141,87.8880,17.0077,101.7980,258.3307,0,U,45449,999,30520,-.31125E-1,-.11014E-3,0
ONEWEB-0094,2020-020AC,2026-07-06T22:42:44.957952,13.17648624,.00017171,87.9148,1.9194,96.7062,263.4265,0,U,45450,999,30891,.9870622E-5,.17E-6,0
ONEWEB-0087,2020-020AD,2026-07-07T11:29:27.712608,13.11416548,.00015357,87.8898,17.0052,89.6306,270.4998,0,U,45451,999,30524,-.14132603E-2,-.488E-5,0
ONEWEB-0082,2020-020AE,2026-07-07T11:24:34.881408,13.11416454,.00014364,87.8889,17.0207,79.8057,280.3233,0,U,45452,999,30533,-.14511549E-2,-.502E-5,0
ONEWEB-0050,2020-020AF,2026-07-06T14:43:10.601760,14.90455053,.00006691,88.9281,230.5725,221.0981,139.0198,0,U,45453,999,34327,.17750822E-3,.1751E-4,0
ONEWEB-0034,2020-020AG,2026-07-06T23:29:38.983488,13.11416026,.00018485,87.8888,17.1289,88.6265,271.5075,0,U,45454,999,30518,.15391494E-2,.558E-5,0
ONEWEB-0060,2020-020AH,2026-07-06T22:24:43.411392,13.11415701,.00009047,87.8881,17.1342,107.3194,252.8033,0,U,45455,999,30513,-.12796289E-2,-.441E-5,0
ONEWEB-0086,2020-020AJ,2026-07-07T18:02:34.029600,13.11415628,.0001587,87.8889,16.9683,115.0034,245.1258,0,U,45456,999,30530,.12902E-2,.47E-5,0
ONEWEB-0088,2020-020AK,2026-07-07T12:01:24.568320,13.11417851,.00018795,87.8897,16.9926,75.1090,285.0246,0,U,45457,999,30520,.90757221E-3,.334E-5,0
ONEWEB-0102,2020-100A,2026-07-07T09:54:47.920032,13.12443843,.00019089,87.8954,346.6518,103.1703,256.9639,0,U,47258,999,26738,.29785937E-3,.12E-5,0
ONEWEB-0109,2020-100B,2026-07-07T10:07:00.036480,13.12443619,.00019751,87.8964,346.6354,96.7133,263.4221,0,U,47259,999,26721,.10227953E-2,.381E-5,0
ONEWEB-0110,2020-100C,2026-07-07T08:56:15.415296,13.12442052,.00016718,87.8963,346.6292,102.2426,257.8890,0,U,47260,999,26737,.20459478E-4,.2E-6,0
ONEWEB-0111,2020-100D,2026-07-07T13:19:43.111776,13.12443940,.0001755,87.8962,346.6117,93.6712,266.4617,0,U,47261,999,26723,-.48714E-3,-.163E-5,0
ONEWEB-0114,2020-100E,2026-07-07T10:24:04.319712,13.12441806,.00020329,87.8967,346.6338,95.4718,264.6643,0,U,47262,999,26717,.11954227E-2,.443E-5,0
ONEWEB-0117,2020-100F,2026-07-07T10:11:52.430496,13.12442454,.00018279,87.8962,346.6257,95.3702,264.7635,0,U,47263,999,26718,.11872398E-2,.44E-5,0
ONEWEB-0118,2020-100G,2026-07-07T09:10:52.307040,13.12441079,.00020704,87.8963,346.6369,87.6787,272.4579,0,U,47264,999,26737,-.76195855E-3,-.261E-5,0
ONEWEB-0119,2020-100H,2026-07-07T09:47:28.509504,13.12443079,.00018565,87.8951,346.6468,94.6300,265.5041,0,U,47265,999,26735,-.14539044E-3,-.4E-6,0
ONEWEB-0120,2020-100J,2026-07-07T10:21:49.775904,13.12441722,.00020357,87.8953,346.6435,96.9652,263.1708,0,U,47266,999,26738,.12550155E-2,.464E-5,0
ONEWEB-0121,2020-100K,2026-07-07T10:04:33.038112,13.12442937,.00015253,87.8964,346.6337,92.8894,267.2409,0,U,47267,999,26729,.9358642E-3,.349E-5,0
ONEWEB-0122,2020-100L,2026-07-07T19:04:54.721056,13.12445399,.0001927,87.8966,346.5640,99.5681,260.5665,0,U,47268,999,26725,.23882E-3,.99E-6,0
ONEWEB-0123,2020-100M,2026-07-07T09:49:54.570432,13.12443182,.00018963,87.8953,346.6455,91.7469,268.3877,0,U,47269,999,26734,.50554166E-4,.31E-6,0
ONEWEB-0124,2020-100N,2026-07-07T09:35:16.074240,13.12443167,.00017353,87.8952,346.6502,92.8874,267.2454,0,U,47270,999,26722,-.81473228E-3,-.28E-5,0
ONEWEB-0125,2020-100P,2026-07-07T09:03:33.315552,13.12441649,.00016823,87.8964,346.6402,85.8789,274.2532,0,U,47271,999,26728,-.49143418E-3,-.164E-5,0
ONEWEB-0126,2020-100Q,2026-07-07T09:33:02.486880,13.12442758,.00019672,87.8956,346.6506,94.8422,265.2931,0,U,47272,999,26735,-.874853E-3,-.302E-5,0
ONEWEB-0127,2020-100R,2026-07-07T08:44:03.012864,13.12441941,.00019646,87.8951,346.6550,95.9876,264.1477,0,U,47273,999,26737,.86005824E-3,.322E-5,0
ONEWEB-0128,2020-100S,2026-07-07T09:15:45.153792,13.12442057,.00016402,87.8950,346.6644,102.9514,257.1798,0,U,47274,999,26739,-.10559225E-2,-.367E-5,0
ONEWEB-0129,2020-100T,2026-07-07T08:46:29.056512,13.12440941,.00029249,87.8963,346.6441,99.5098,260.6361,0,U,47275,999,26732,.64536705E-3,.245E-5,0
